ONEWEB-0033             
1 45142U 20008M   26159.19537610  .00000667  00000+0  18750-2 0  9992
2 45142  87.8839  38.0685 0001425  94.2528 265.8762 13.10371211307032
ONEWEB-0035             
1 45143U 20008N   26159.21542920 -.00000276  00000+0 -82621-3 0  9993
2 45143  87.8836  38.0574 0001721  83.7762 276.3561 13.10371070306765
ONEWEB-0036             
1 45144U 20008P   26159.18783333  .00011201  00000+0  32229-1 0  9990
2 45144  87.8852  38.0721 0001504  95.3459 264.7839 13.09911315307185
ONEWEB-0038             
1 45145U 20008Q   26159.16585342  .00000139  00000+0  35597-3 0  9990
2 45145  87.8910  22.8714 0001125  16.9490 343.1676 13.11414889309143
ONEWEB-0039             
1 45146U 20008R   26159.19870046  .00000526  00000+0  14702-2 0  9996
2 45146  87.8839  38.0581 0002107  68.5323 291.6029 13.10370804306989
ONEWEB-0040             
1 45147U 20008S   26159.19205903  .00000710  00000+0  19982-2 0  9991
2 45147  87.8839  38.0705 0001760  77.8449 282.2875 13.10372183306688
ONEWEB-0043             
1 45149U 20008U   26159.19372161  .00000769  00000+0  21655-2 0  9998
2 45149  87.8843  38.0573 0002187  69.2666 290.8696 13.10371951307003
ONEWEB-0044             
1 45150U 20008V   26159.22191480 -.00000521  00000+0 -15282-2 0  9994
2 45150  87.8850  38.0516 0001868  76.1479 283.9857 13.10370246307305
ONEWEB-0045             
1 45151U 20008W   26159.16063413  .00000328  00000+0  88879-3 0  9998
2 45151  87.8904  22.8556 0001818  79.9050 280.2283 13.11415693309225
ONEWEB-0047             
1 45152U 20008X   26159.21514706 -.00000266  00000+0 -79767-3 0  9990
2 45152  87.8847  38.0526 0001593  81.4888 278.6420 13.10370250307023
ONEWEB-0048             
1 45153U 20008Y   26159.21030568  .00000043  00000+0  87081-4 0  9990
2 45153  87.8836  38.0754 0001743  81.9441 278.1884 13.10369853306634
ONEWEB-0049             
1 45154U 20008Z   26159.21348871 -.00000146  00000+0 -45348-3 0  9995
2 45154  87.8840  38.0641 0002214  85.3808 274.7572 13.10369636306853
ONEWEB-0051             
1 45155U 20008AA  26159.15894770  .00000413  00000+0  11288-2 0  9993
2 45155  87.8896  22.8640 0001830  83.7846 276.3491 13.11415578309907
ONEWEB-0052             
1 45156U 20008AB  26159.15731701 -.00000506  00000+0 -14872-2 0  9995
2 45156  87.8846  38.0615 0002250  84.0669 276.0714 13.10373875306755
ONEWEB-0053             
1 45157U 20008AC  26159.19040190  .00000730  00000+0  20540-2 0  9991
2 45157  87.8840  38.0764 0002252  74.5925 285.5451 13.10372175306739
ONEWEB-0054             
1 45158U 20008AD  26159.22523187 -.00000548  00000+0 -16057-2 0  9995
2 45158  87.8851  38.0512 0001860  83.3843 276.7496 13.10371371306855
