[{"OBJECT_NAME":"ONEWEB-0033","OBJECT_ID":"2020-008M","EPOCH":"2026-06-08T04:41:20.495040","MEAN_MOTION":13.10371211,"ECCENTRICITY":0.0001425,"INCLINATION":87.8839,"RA_OF_ASC_NODE":38.0685,"ARG_OF_PERICENTER":94.2528,"MEAN_ANOMALY":265.8762,"EPHEMERIS_TYPE":0,"CLASSIFICATION_TYPE":"U","NORAD_CAT_ID":45142,"ELEMENT_SET_NO":999,"REV_AT_EPOCH":30703,"BSTAR":0.001875,"MEAN_MOTION_DOT":6.67e-06,"MEAN_MOTION_DDOT":0.0},{"OBJECT_NAME":"ONEWEB-0035","OBJECT_ID":"2020-008N","EPOCH":"2026-06-08T05:10:13.082880","MEAN_MOTION":13.1037107,"ECCENTRICITY":0.0001721,"INCLINATION":87.8836,"RA_OF_ASC_NODE":38.0574,"ARG_OF_PERICENTER":83.7762,"MEAN_ANOMALY":276.3561,"EPHEMERIS_TYPE":0,"CLASSIFICATION_TYPE":"U","NORAD_CAT_ID":45143,"ELEMENT_SET_NO":999,"REV_AT_EPOCH":30676,"BSTAR":-0.00082621,"MEAN_MOTION_DOT":-2.76e-06,"MEAN_MOTION_DDOT":0.0},{"OBJECT_NAME":"ONEWEB-0036","OBJECT_ID":"2020-008P","EPOCH":"2026-06-08T04:30:28.799712","MEAN_MOTION":13.09911315,"ECCENTRICITY":0.0001504,"INCLINATION":87.8852,"RA_OF_ASC_NODE":38.0721,"ARG_OF_PERICENTER":95.3459,"MEAN_ANOMALY":264.7839,"EPHEMERIS_TYPE":0,"CLASSIFICATION_TYPE":"U","NORAD_CAT_ID":45144,"ELEMENT_SET_NO":999,"REV_AT_EPOCH":30718,"BSTAR":0.032229,"MEAN_MOTION_DOT":0.00011201,"MEAN_MOTION_DDOT":0.0},{"OBJECT_NAME":"ONEWEB-0038","OBJECT_ID":"2020-008Q","EPOCH":"2026-06-08T03:58:49.735488","MEAN_MOTION":13.11414889,"ECCENTRICITY":0.0001125,"INCLINATION":87.891,"RA_OF_ASC_NODE":22.8714,"ARG_OF_PERICENTER":16.949,"MEAN_ANOMALY":343.1676,"EPHEMERIS_TYPE":0,"CLASSIFICATION_TYPE":"U","NORAD_CAT_ID":45145,"ELEMENT_SET_NO":999,"REV_AT_EPOCH":30914,"BSTAR":0.00035597,"MEAN_MOTION_DOT":1.39e-06,"MEAN_MOTION_DDOT":0.0},{"OBJECT_NAME":"ONEWEB-0039","OBJECT_ID":"2020-008R","EPOCH":"2026-06-08T04:46:07.719744","MEAN_MOTION":13.10370804,"ECCENTRICITY":0.0002107,"INCLINATION":87.8839,"RA_OF_ASC_NODE":38.0581,"ARG_OF_PERICENTER":68.5323,"MEAN_ANOMALY":291.6029,"EPHEMERIS_TYPE":0,"CLASSIFICATION_TYPE":"U","NORAD_CAT_ID":45146,"ELEMENT_SET_NO":999,"REV_AT_EPOCH":30698,"BSTAR":0.0014702,"MEAN_MOTION_DOT":5.26e-06,"MEAN_MOTION_DDOT":0.0},{"OBJECT_NAME":"ONEWEB-0040","OBJECT_ID":"2020-008S","EPOCH":"2026-06-08T04:36:33.900192","MEAN_MOTION":13.10372183,"ECCENTRICITY":0.000176,"INCLINATION":87.8839,"RA_OF_ASC_NODE":38.0705,"ARG_OF_PERICENTER":77.8449,"MEAN_ANOMALY":282.2875,"EPHEMERIS_TYPE":0,"CLASSIFICATION_TYPE":"U","NORAD_CAT_ID":45147,"ELEMENT_SET_NO":999,"REV_AT_EPOCH":30668,"BSTAR":0.0019982,"MEAN_MOTION_DOT":7.1e-06,"MEAN_MOTION_DDOT":0.0},{"OBJECT_NAME":"ONEWEB-0043","OBJECT_ID":"2020-008U","EPOCH":"2026-06-08T04:38:57.547104","MEAN_MOTION":13.10371951,"ECCENTRICITY":0.0002187,"INCLINATION":87.8843,"RA_OF_ASC_NODE":38.0573,"ARG_OF_PERICENTER":69.2666,"MEAN_ANOMALY":290.8696,"EPHEMERIS_TYPE":0,"CLASSIFICATION_TYPE":"U","NORAD_CAT_ID":45149,"ELEMENT_SET_NO":999,"REV_AT_EPOCH":30700,"BSTAR":0.0021655,"MEAN_MOTION_DOT":7.69e-06,"MEAN_MOTION_DDOT":0.0},{"OBJECT_NAME":"ONEWEB-0044","OBJECT_ID":"2020-008V","EPOCH":"2026-06-08T05:19:33.438720","MEAN_MOTION":13.10370246,"ECCENTRICITY":0.0001868,"INCLINATION":87.885,"RA_OF_ASC_NODE":38.0516,"ARG_OF_PERICENTER":76.1479,"MEAN_ANOMALY":283.9857,"EPHEMERIS_TYPE":0,"CLASSIFICATION_TYPE":"U","NORAD_CAT_ID":45150,"ELEMENT_SET_NO":999,"REV_AT_EPOCH":30730,"BSTAR":-0.0015282000000000002,"MEAN_MOTION_DOT":-5.21e-06,"MEAN_MOTION_DDOT":0.0},{"OBJECT_NAME":"ONEWEB-0045","OBJECT_ID":"2020-008W","EPOCH":"2026-06-08T03:51:18.788832","MEAN_MOTION":13.11415693,"ECCENTRICITY":0.0001818,"INCLINATION":87.8904,"RA_OF_ASC_NODE":22.8556,"ARG_OF_PERICENTER":79.905,"MEAN_ANOMALY":280.2283,"EPHEMERIS_TYPE":0,"CLASSIFICATION_TYPE":"U","NORAD_CAT_ID":45151,"ELEMENT_SET_NO":999,"REV_AT_EPOCH":30922,"BSTAR":0.00088879,"MEAN_MOTION_DOT":3.28e-06,"MEAN_MOTION_DDOT":0.0},{"OBJECT_NAME":"ONEWEB-0047","OBJECT_ID":"2020-008X","EPOCH":"2026-06-08T05:09:48.705984","MEAN_MOTION":13.1037025,"ECCENTRICITY":0.0001593,"INCLINATION":87.8847,"RA_OF_ASC_NODE":38.0526,"ARG_OF_PERICENTER":81.4888,"MEAN_ANOMALY":278.642,"EPHEMERIS_TYPE":0,"CLASSIFICATION_TYPE":"U","NORAD_CAT_ID":45152,"ELEMENT_SET_NO":999,"REV_AT_EPOCH":30702,"BSTAR":-0.00079767,"MEAN_MOTION_DOT":-2.66e-06,"MEAN_MOTION_DDOT":0.0},{"OBJECT_NAME":"ONEWEB-0048","OBJECT_ID":"2020-008Y","EPOCH":"2026-06-08T05:02:50.410752","MEAN_MOTION":13.10369853,"ECCENTRICITY":0.0001743,"INCLINATION":87.8836,"RA_OF_ASC_NODE":38.0754,"ARG_OF_PERICENTER":81.9441,"MEAN_ANOMALY":278.1884,"EPHEMERIS_TYPE":0,"CLASSIFICATION_TYPE":"U","NORAD_CAT_ID":45153,"ELEMENT_SET_NO":999,"REV_AT_EPOCH":30663,"BSTAR":8.7081e-05,"MEAN_MOTION_DOT":4.3e-07,"MEAN_MOTION_DDOT":0.0},{"OBJECT_NAME":"ONEWEB-0049","OBJECT_ID":"2020-008Z","EPOCH":"2026-06-08T05:07:25.424544","MEAN_MOTION":13.10369636,"ECCENTRICITY":0.0002214,"INCLINATION":87.884,"RA_OF_ASC_NODE":38.0641,"ARG_OF_PERICENTER":85.3808,"MEAN_ANOMALY":274.7572,"EPHEMERIS_TYPE":0,"CLASSIFICATION_TYPE":"U","NORAD_CAT_ID":45154,"ELEMENT_SET_NO":999,"REV_AT_EPOCH":30685,"BSTAR":-0.00045348000000000003,"MEAN_MOTION_DOT":-1.46e-06,"MEAN_MOTION_DDOT":0.0},{"OBJECT_NAME":"ONEWEB-0051","OBJECT_ID":"2020-008AA","EPOCH":"2026-06-08T03:48:53.081280","MEAN_MOTION":13.11415578,"ECCENTRICITY":0.000183,"INCLINATION":87.8896,"RA_OF_ASC_NODE":22.864,"ARG_OF_PERICENTER":83.7846,"MEAN_ANOMALY":276.3491,"EPHEMERIS_TYPE":0,"CLASSIFICATION_TYPE":"U","NORAD_CAT_ID":45155,"ELEMENT_SET_NO":999,"REV_AT_EPOCH":30990,"BSTAR":0.0011288,"MEAN_MOTION_DOT":4.13e-06,"MEAN_MOTION_DDOT":0.0},{"OBJECT_NAME":"ONEWEB-0052","OBJECT_ID":"2020-008AB","EPOCH":"2026-06-08T03:46:32.189664","MEAN_MOTION":13.10373875,"ECCENTRICITY":0.000225,"INCLINATION":87.8846,"RA_OF_ASC_NODE":38.0615,"ARG_OF_PERICENTER":84.0669,"MEAN_ANOMALY":276.0714,"EPHEMERIS_TYPE":0,"CLASSIFICATION_TYPE":"U","NORAD_CAT_ID":45156,"ELEMENT_SET_NO":999,"REV_AT_EPOCH":30675,"BSTAR":-0.0014872,"MEAN_MOTION_DOT":-5.06e-06,"MEAN_MOTION_DDOT":0.0},{"OBJECT_NAME":"ONEWEB-0053","OBJECT_ID":"2020-008AC","EPOCH":"2026-06-08T04:34:10.724160","MEAN_MOTION":13.10372175,"ECCENTRICITY":0.0002252,"INCLINATION":87.884,"RA_OF_ASC_NODE":38.0764,"ARG_OF_PERICENTER":74.5925,"MEAN_ANOMALY":285.5451,"EPHEMERIS_TYPE":0,"CLASSIFICATION_TYPE":"U","NORAD_CAT_ID":45157,"ELEMENT_SET_NO":999,"REV_AT_EPOCH":30673,"BSTAR":0.002054,"MEAN_MOTION_DOT":7.3e-06,"MEAN_MOTION_DDOT":0.0},{"OBJECT_NAME":"ONEWEB-0054","OBJECT_ID":"2020-008AD","EPOCH":"2026-06-08T05:24:20.033568","MEAN_MOTION":13.10371371,"ECCENTRICITY":0.000186,"INCLINATION":87.8851,"RA_OF_ASC_NODE":38.0512,"ARG_OF_PERICENTER":83.3843,"MEAN_ANOMALY":276.7496,"EPHEMERIS_TYPE":0,"CLASSIFICATION_TYPE":"U","NORAD_CAT_ID":45158,"ELEMENT_SET_NO":999,"REV_AT_EPOCH":30685,"BSTAR":-0.0016056999999999998,"MEAN_MOTION_DOT":-5.48e-06,"MEAN_MOTION_DDOT":0.0}]